#dP2024  9  5  0  0  0.00000000      96 __u+U IGS20 FIT  IAC
## 2330 345600.00000000   900.00000000 60558 0.0000000000000
+   53   G02G03G04G05G06G07G08G09G10G11G12G13G14G15G16G17G18
+        G19G20G21G22G23G24G25G26G27G28G29G30G31G32R01R02R03
+        R04R05R07R08R09R11R12R14R15R16R17R18R19R20R21R22R24
+        R25R26  0  0  0  0  0  0  0  0  0  0  0  0  0  0  0
+          0  0  0  0  0  0  0  0  0  0  0  0  0  0  0  0  0
++         6  5  6  5  6  6  6  6  5  6  5  5  5  6  5  5  6
++         5  5  6  5  6  6  5  4  5  5  6  5  5  6  7  4  5
++         6  8  6  6  7  4  6  6  7  7  6  5  8  6  5  5  7
++         5  6  0  0  0  0  0  0  0  0  0  0  0  0  0  0  0
++         0  0  0  0  0  0  0  0  0  0  0  0  0  0  0  0  0
%c M  cc GPS ccc cccc cccc cccc cccc ccccc ccccc ccccc ccccc
%c cc cc ccc ccc cccc cccc cccc cccc ccccc ccccc ccccc ccccc
%f  0.0000000  0.000000000  0.00000000000  0.000000000000000
%f  0.0000000  0.000000000  0.00000000000  0.000000000000000
%i    0    0    0    0      0      0      0      0         0
%i    0    0    0    0      0      0      0      0         0
/* INFORMATION & ANALYSIS CENTER (IAC)      ULTRA-RAPID DATA
/* S/V CLOCKS ARE ALIGNED TO GNSS TIME                      
/* G:C1WC2W R:C1PC2P E:C1XC5X C:C2IC6I J:C1CC2S             
/* PCV:IGS20_2317 OL/AL:FES2004  NONE     YN ORB:CoN CLK:CoN
*  2024 09 05  9 30  0.00000000
PG02  22073.759382  12337.193552   9118.360535   -364.499921
PG03  14539.814663   2362.924895  21927.117876    526.627019
PG04  25266.773158   1569.036166   8288.350835    437.821923
PG05  -7452.823461 -18381.559389 -17813.453055   -185.570006
PG06    957.928302 -18290.492491  19259.682940     51.823408
PG07  17014.150539  -2186.681344 -19866.984105    -41.761097
PG08  18495.751762   8339.880894 -17472.771129    341.667570
PG09  25436.573962  -7457.692424  -2209.501501    343.520629
PG10 -10338.147512  24018.392339  -3259.738247   -115.442065
PG11 -11186.978312 -22748.210794   8072.412762   -730.933229
PG12 -13462.961502  -6843.713113  21569.926932   -535.749056
PG13 -10106.877989 -13579.776148 -20751.724956    674.804481
PG14  13151.469108 -21862.401959  -6909.591962    488.582029
PG15 -19376.265325  -6556.667828 -17549.090049    200.711634
PG16   2681.282816  21326.011942 -15638.795874   -189.360520
PG17  16339.487147 -13709.916422  16357.435915    635.765931
PG18 -16185.076347   2868.938558 -20890.042898   -651.393728
PG19   7540.765626 -14887.453070  20405.693315    534.018628
PG20  -2369.353756 -25150.470154  -8377.728039    370.951903
PG21  21309.533557  16487.431971   3644.289095    102.327467
PG22   9474.081250 -24946.175394   1854.294443    -58.732592
PG23 -15221.058945  15615.424311 -14979.393234    313.276224
PG24 -21773.622808 -14251.773618   5862.045660   -486.807791
PG25 -16531.396628   6618.851975  19286.075222    499.558392
PG26  -3532.371634  25890.874776  -3597.845636     85.700351
PG27   7508.725780  13905.929065 -21685.910562    -33.697662
PG28  -2716.635986  17344.506103  19918.795749   -399.679619
PG29 -26457.926632   2969.679795    548.855267   -579.824890
PG30   9360.728289 -12857.663981 -21095.456086   -327.079948
PG31   7594.289871  22105.938771  12015.845431   -225.074627
PG32 -14193.822362  15008.849969  16795.273191   -600.012307
PR01  20499.607860 -15047.699930  -1944.839675     96.767799
PR02  10270.708617 -15814.057870 -17177.117856    -24.503743
PR03  -6729.075296  -8509.297429 -23044.010964    106.964968
PR04 -19383.151174   3247.960627 -16226.754241    253.229220
PR05 -21835.772148  13139.008706   -704.056857    137.194532
PR07   7384.206596   8103.346252  23067.942981     90.258024
PR08  19542.583274  -3498.971166  16093.138806     -6.394636
PR09   -914.224982  24875.334687   5794.029308    207.395067
PR11  10733.962265   8322.533419 -21581.662221     12.699730
PR12   8919.100902 -13125.020843 -19946.020909     44.474105
PR14  -6784.260757 -21846.816021  11279.188008     26.888173
PR15 -10979.575049  -6502.582843  22108.831354     76.180616
PR16  -8814.103370  12973.980632  20142.521792     28.857720
PR17 -17657.719191 -14929.755800  10837.145077    119.271806
PR18 -22942.254599  -9640.649702  -5497.539635    160.529781
PR19 -17937.276577  -1112.897181 -18108.168504   -290.260072
PR20    663.716013  12030.564485 -22478.064523   -118.688970
PR21  17048.631957  15095.116001 -11454.771603   -131.881084
PR22  22751.862605   9422.467962   6685.713604     54.151527
PR24  -1524.072914 -12615.127845  22140.475556    -70.757910
PR25  17202.701443  15649.254728 -10441.473218   -101.003856
PR26  18722.388798  -2531.277831  17143.114755     18.023594
*  2024 09 05  9 45  0.00000000
PG02  22563.622511  13028.236197   6452.874563   -364.493150
PG03  13812.953053   4800.934739  22007.722967    526.639499
PG04  24240.281872   1987.381848  10856.077007    437.828402
PG05  -6862.559908 -20194.227908 -15967.491883   -185.571155
PG06   2544.842706 -16677.852564  20549.919474     51.800386
PG07  18514.473493   -441.065825 -18676.706773    -41.756547
PG08  16550.094303   9012.104276 -18993.827165    341.679714
PG09  25579.267116  -7231.645763    638.124390    343.534963
PG10 -10376.050667  23417.882926  -6116.422501   -115.452864
PG11 -10331.631870 -22079.070708  10658.737290   -730.937385
PG12 -12557.715964  -9184.622393  21251.977043   -535.751327
PG13  -7755.363321 -13847.046908 -21559.062536    674.806186
PG14  13139.806547 -20863.949744  -9529.128896    488.589782
PG15 -17582.607284  -7459.355095 -19042.813170    200.715664
PG16   1889.275731  22767.223868 -13493.465977   -189.351158
PG17  18019.514486 -13853.789644  14303.136039    635.756392
PG18 -17699.293776   1104.085895 -19822.325323   -651.395981
PG19   9845.216743 -15068.215536  19230.095938    534.023516
PG20  -2034.198197 -25929.034083  -5696.359369    370.951010
PG21  21352.713665  16750.070330    863.212176    102.326902
PG22   9693.526720 -24864.292502   -982.466429    -58.736476
PG23 -14891.149321  13802.011584 -16975.358012    313.283810
PG24 -22003.199349 -14842.313991   3145.602317   -486.807793
PG25 -16025.390942   4325.715645  20340.657995    499.558490
PG26  -3942.063808  26049.242190   -797.452598     85.692920
PG27   5150.080417  14497.519874 -21951.538119    -33.697870
PG28  -4438.438948  15761.093195  20900.845295   -399.692382
PG29 -26265.668853   2716.629443   3403.305222   -579.822870
PG30  11082.181424 -11089.956411 -21286.581778   -327.073654
PG31   6369.236077  21120.141946  14282.236650   -225.074124
PG32 -15964.449505  15266.836879  14814.427214   -600.009236
PR01  20446.259935 -15190.657453   1267.584072     96.768751
PR02  11847.767643 -17022.083777 -14861.811041    -24.504026
PR03  -4381.859094 -10125.179094 -22961.782461    106.966179
PR04 -17538.695936   2154.258798 -18364.864966    253.231118
PR05 -21498.940101  13128.604276  -3917.351564    137.195180
PR07   5038.262960   9703.361708  23077.591900     90.259270
PR08  17738.459668  -2403.699581  18243.630879     -6.394550
PR09   -922.314171  23975.449269   8806.113978    207.397309
PR11  11024.528494  10890.824784 -20253.556438     12.698057
PR12   9074.087338 -10575.996687 -21338.908320     44.474387
PR14  -6999.567198 -23043.483348   8390.775716     26.888352
PR15 -11242.675919  -9144.443274  21012.730712     76.180569
PR16  -8970.048338  10411.594013  21512.260820     28.858459
PR17 -16376.553271 -14123.390550  13580.020251    119.274533
PR18 -23464.896318  -9679.382553  -2302.338387    160.531462
PR19 -19856.994827  -1980.634909 -15897.076068   -290.261760
PR20  -1791.823751  10645.162716 -23103.872308   -118.688428
PR21  15704.626106  14241.180416 -14154.586715   -131.883531
PR22  23375.026316   9588.684865   3553.692071     54.143445
PR24    953.491520 -11375.044659  22831.637260    -70.759632
PR25  15973.175396  14850.901681 -13197.836072   -101.003736
PR26  16825.601098  -1341.413268  19131.949481     18.031397
EOF
